{"type": "FeatureCollection", "features": [ {"type": "Feature", "properties": {"norad_id": 39155, "name": "COSMOS 2485 (747)", "group": "glo-ops", "lat": 62.05327877549763, "lon": 139.9363811548601, "alt_km": 19178.685078499508, "timestamp": "2025-12-09T21:34:11.668739+00:00", "meta": {"OBJECT_NAME": "COSMOS 2485 (747)", "OBJECT_ID": "2013-019A", "EPOCH": "2025-12-09T07:54:23.489856", "MEAN_MOTION": 2.13102865, "ECCENTRICITY": 0.00245518, "INCLINATION": 65.3117, "RA_OF_ASC_NODE": 79.9821, "ARG_OF_PERICENTER": 229.1035, "MEAN_ANOMALY": 130.7003, "EPHEMERIS_TYPE": 0, "CLASSIFICATION_TYPE": "U", "NORAD_CAT_ID": 39155, "ELEMENT_SET_NO": 999, "REV_AT_EPOCH": 9823, "BSTAR": 0, "MEAN_MOTION_DOT": -1.3e-07, "MEAN_MOTION_DDOT": 0}, "tle": {"line1": "1 39155U 13019A   25343.32943854 -.00000013  00000+0  00000+0 0  9995", "line2": "2 39155  65.3117  79.9821 0024551 229.1035 130.7003  2.13102865 98237"}}, "geometry": {"type": "Point", "coordinates": [139.9363811548601, 62.05327877549763]}}, {"type": "Feature", "properties": {"norad_id": 39620, "name": "COSMOS 2492 (754)", "group": "glo-ops", "lat": 59.573817825001626, "lon": 89.14069614217641, "alt_km": 19156.816280610623, "timestamp": "2025-12-09T21:34:11.668751+00:00", "meta": {"OBJECT_NAME": "COSMOS 2492 (754)", "OBJECT_ID": "2014-012A", "EPOCH": "2025-12-09T06:54:46.186848", "MEAN_MOTION": 2.13102988, "ECCENTRICITY": 0.00142075, "INCLINATION": 65.4097, "RA_OF_ASC_NODE": 320.3884, "ARG_OF_PERICENTER": 310.998, "MEAN_ANOMALY": 48.8757, "EPHEMERIS_TYPE": 0, "CLASSIFICATION_TYPE": "U", "NORAD_CAT_ID": 39620, "ELEMENT_SET_NO": 999, "REV_AT_EPOCH": 9119, "BSTAR": 0, "MEAN_MOTION_DOT": -4.9e-07, "MEAN_MOTION_DDOT": 0}, "tle": {"line1": "1 39620U 14012A   25343.28803457 -.00000049  00000+0  00000+0 0  9994", "line2": "2 39620  65.4097 320.3884 0014207 310.9980  48.8757  2.13102988 91198"}}, "geometry": {"type": "Point", "coordinates": [89.14069614217641, 59.573817825001626]}}, {"type": "Feature", "properties": {"norad_id": 40001, "name": "COSMOS 2500 (755)", "group": "glo-ops", "lat": -21.331963801046413, "lon": -50.21218414674566, "alt_km": 19142.442872996697, "timestamp": "2025-12-09T21:34:11.668762+00:00", "meta": {"OBJECT_NAME": "COSMOS 2500 (755)", "OBJECT_ID": "2014-032A", "EPOCH": "2025-12-09T11:02:48.490944", "MEAN_MOTION": 2.13105796, "ECCENTRICITY": 0.00083097, "INCLINATION": 65.3451, "RA_OF_ASC_NODE": 320.1442, "ARG_OF_PERICENTER": 219.1348, "MEAN_ANOMALY": 140.802, "EPHEMERIS_TYPE": 0, "CLASSIFICATION_TYPE": "U", "NORAD_CAT_ID": 40001, "ELEMENT_SET_NO": 999, "REV_AT_EPOCH": 8941, "BSTAR": 0, "MEAN_MOTION_DOT": -4.9e-07, "MEAN_MOTION_DDOT": 0}, "tle": {"line1": "1 40001U 14032A   25343.46028346 -.00000049  00000+0  00000+0 0  9997", "line2": "2 40001  65.3451 320.1442 0008309 219.1348 140.8020  2.13105796 89416"}}, "geometry": {"type": "Point", "coordinates": [-50.21218414674566, -21.331963801046413]}}, {"type": "Feature", "properties": {"norad_id": 40315, "name": "COSMOS 2501 (702K)", "group": "glo-ops", "lat": 37.74761932501706, "lon": -5.677084350774339, "alt_km": 19105.95774247683, "timestamp": "2025-12-09T21:34:11.668774+00:00", "meta": {"OBJECT_NAME": "COSMOS 2501 (702K)", "OBJECT_ID": "2014-075A", "EPOCH": "2025-12-07T20:13:51.362112", "MEAN_MOTION": 2.13101338, "ECCENTRICITY": 0.00201356, "INCLINATION": 63.6139, "RA_OF_ASC_NODE": 196.9947, "ARG_OF_PERICENTER": 204.4913, "MEAN_ANOMALY": 155.4908, "EPHEMERIS_TYPE": 0, "CLASSIFICATION_TYPE": "U", "NORAD_CAT_ID": 40315, "ELEMENT_SET_NO": 999, "REV_AT_EPOCH": 8577, "BSTAR": 0, "MEAN_MOTION_DOT": 5.4e-07, "MEAN_MOTION_DDOT": 0}, "tle": {"line1": "1 40315U 14075A   25341.84295558  .00000054  00000+0  00000+0 0  9998", "line2": "2 40315  63.6139 196.9947 0020135 204.4913 155.4908  2.13101338 85773"}}, "geometry": {"type": "Point", "coordinates": [-5.677084350774339, 37.74761932501706]}}, {"type": "Feature", "properties": {"norad_id": 41330, "name": "COSMOS 2514 (751)", "group": "glo-ops", "lat": 27.62903808397848, "lon": 125.44592561254372, "alt_km": 19116.496520329434, "timestamp": "2025-12-09T21:34:11.668785+00:00", "meta": {"OBJECT_NAME": "COSMOS 2514 (751)", "OBJECT_ID": "2016-008A", "EPOCH": "2025-12-09T05:37:58.803168", "MEAN_MOTION": 2.13102552, "ECCENTRICITY": 0.00122306, "INCLINATION": 65.1358, "RA_OF_ASC_NODE": 319.524, "ARG_OF_PERICENTER": 220.0477, "MEAN_ANOMALY": 139.8584, "EPHEMERIS_TYPE": 0, "CLASSIFICATION_TYPE": "U", "NORAD_CAT_ID": 41330, "ELEMENT_SET_NO": 999, "REV_AT_EPOCH": 7657, "BSTAR": 0, "MEAN_MOTION_DOT": -4.9e-07, "MEAN_MOTION_DDOT": 0}, "tle": {"line1": "1 41330U 16008A   25343.23470837 -.00000049  00000+0  00000+0 0  9999", "line2": "2 41330  65.1358 319.5240 0012230 220.0477 139.8584  2.13102552 76579"}}, "geometry": {"type": "Point", "coordinates": [125.44592561254372, 27.62903808397848]}}, {"type": "Feature", "properties": {"norad_id": 42939, "name": "COSMOS 2522 (752)", "group": "glo-ops", "lat": -63.849359220511694, "lon": 116.14615593428411, "alt_km": 19125.486085181066, "timestamp": "2025-12-09T21:34:11.668796+00:00", "meta": {"OBJECT_NAME": "COSMOS 2522 (752)", "OBJECT_ID": "2017-055A", "EPOCH": "2025-12-08T03:13:49.063296", "MEAN_MOTION": 2.13101881, "ECCENTRICITY": 0.00064484, "INCLINATION": 64.0758, "RA_OF_ASC_NODE": 198.386, "ARG_OF_PERICENTER": 225.1717, "MEAN_ANOMALY": 134.8539, "EPHEMERIS_TYPE": 0, "CLASSIFICATION_TYPE": "U", "NORAD_CAT_ID": 42939, "ELEMENT_SET_NO": 999, "REV_AT_EPOCH": 6390, "BSTAR": 0, "MEAN_MOTION_DOT": 5.1e-07, "MEAN_MOTION_DDOT": 0}, "tle": {"line1": "1 42939U 17055A   25342.13459564  .00000051  00000+0  00000+0 0  9992", "line2": "2 42939  64.0758 198.3860 0006448 225.1717 134.8539  2.13101881 63907"}}, "geometry": {"type": "Point", "coordinates": [116.14615593428411, -63.849359220511694]}}, {"type": "Feature", "properties": {"norad_id": 43508, "name": "COSMOS 2527 (756)", "group": "glo-ops", "lat": -49.326586029341854, "lon": 48.18863174502992, "alt_km": 19131.554973750986, "timestamp": "2025-12-09T21:34:11.668808+00:00", "meta": {"OBJECT_NAME": "COSMOS 2527 (756)", "OBJECT_ID": "2018-053A", "EPOCH": "2025-12-09T12:04:31.346976", "MEAN_MOTION": 2.13102032, "ECCENTRICITY": 0.00085763, "INCLINATION": 65.4709, "RA_OF_ASC_NODE": 80.2399, "ARG_OF_PERICENTER": 224.3157, "MEAN_ANOMALY": 135.632, "EPHEMERIS_TYPE": 0, "CLASSIFICATION_TYPE": "U", "NORAD_CAT_ID": 43508, "ELEMENT_SET_NO": 999, "REV_AT_EPOCH": 5823, "BSTAR": 0, "MEAN_MOTION_DOT": -1.3e-07, "MEAN_MOTION_DDOT": 0}, "tle": {"line1": "1 43508U 18053A   25343.50314059 -.00000013  00000+0  00000+0 0  9994", "line2": "2 43508  65.4709  80.2399 0008576 224.3157 135.6320  2.13102032 58236"}}, "geometry": {"type": "Point", "coordinates": [48.18863174502992, -49.326586029341854]}}, {"type": "Feature", "properties": {"norad_id": 43687, "name": "COSMOS 2529 (757)", "group": "glo-ops", "lat": -42.58013522526654, "lon": 45.26444195495685, "alt_km": 19118.306818403464, "timestamp": "2025-12-09T21:34:11.668819+00:00", "meta": {"OBJECT_NAME": "COSMOS 2529 (757)", "OBJECT_ID": "2018-086A", "EPOCH": "2025-12-09T03:09:05.938272", "MEAN_MOTION": 2.13101866, "ECCENTRICITY": 0.00072944, "INCLINATION": 64.2918, "RA_OF_ASC_NODE": 199.0104, "ARG_OF_PERICENTER": 254.1951, "MEAN_ANOMALY": 105.7985, "EPHEMERIS_TYPE": 0, "CLASSIFICATION_TYPE": "U", "NORAD_CAT_ID": 43687, "ELEMENT_SET_NO": 999, "REV_AT_EPOCH": 5523, "BSTAR": 0, "MEAN_MOTION_DOT": 4.4e-07, "MEAN_MOTION_DDOT": 0}, "tle": {"line1": "1 43687U 18086A   25343.13131873  .00000044  00000+0  00000+0 0  9991", "line2": "2 43687  64.2918 199.0104 0007294 254.1951 105.7985  2.13101866 55231"}}, "geometry": {"type": "Point", "coordinates": [45.26444195495685, -42.58013522526654]}}, {"type": "Feature", "properties": {"norad_id": 44299, "name": "COSMOS 2534 (758)", "group": "glo-ops", "lat": 2.872345778550764, "lon": -159.6268763220243, "alt_km": 19125.980549819928, "timestamp": "2025-12-09T21:34:11.668831+00:00", "meta": {"OBJECT_NAME": "COSMOS 2534 (758)", "OBJECT_ID": "2019-030A", "EPOCH": "2025-12-09T05:29:56.087232", "MEAN_MOTION": 2.13102103, "ECCENTRICITY": 0.00090056, "INCLINATION": 64.3653, "RA_OF_ASC_NODE": 199.0114, "ARG_OF_PERICENTER": 283.3894, "MEAN_ANOMALY": 286.0531, "EPHEMERIS_TYPE": 0, "CLASSIFICATION_TYPE": "U", "NORAD_CAT_ID": 44299, "ELEMENT_SET_NO": 999, "REV_AT_EPOCH": 5087, "BSTAR": 0, "MEAN_MOTION_DOT": 4.4e-07, "MEAN_MOTION_DDOT": 0}, "tle": {"line1": "1 44299U 19030A   25343.22912138  .00000044  00000+0  00000+0 0  9992", "line2": "2 44299  64.3653 199.0114 0009005 283.3894 286.0531  2.13102103 50871"}}, "geometry": {"type": "Point", "coordinates": [-159.6268763220243, 2.872345778550764]}}, {"type": "Feature", "properties": {"norad_id": 44850, "name": "COSMOS 2544 (759)", "group": "glo-ops", "lat": -12.679633967074743, "lon": 74.16828410211679, "alt_km": 19136.28102827071, "timestamp": "2025-12-09T21:34:11.668842+00:00", "meta": {"OBJECT_NAME": "COSMOS 2544 (759)", "OBJECT_ID": "2019-088A", "EPOCH": "2025-12-09T10:44:40.843680", "MEAN_MOTION": 2.13101756, "ECCENTRICITY": 0.0013649, "INCLINATION": 65.4583, "RA_OF_ASC_NODE": 80.0686, "ARG_OF_PERICENTER": 249.1242, "MEAN_ANOMALY": 110.7462, "EPHEMERIS_TYPE": 0, "CLASSIFICATION_TYPE": "U", "NORAD_CAT_ID": 44850, "ELEMENT_SET_NO": 999, "REV_AT_EPOCH": 4667, "BSTAR": 0, "MEAN_MOTION_DOT": -1.3e-07, "MEAN_MOTION_DDOT": 0}, "tle": {"line1": "1 44850U 19088A   25343.44769495 -.00000013  00000+0  00000+0 0  9995", "line2": "2 44850  65.4583  80.0686 0013649 249.1242 110.7462  2.13101756 46679"}}, "geometry": {"type": "Point", "coordinates": [74.16828410211679, -12.679633967074743]}}]}